KUIPER-00127            
1 65956U 25228K   26085.54353821  .00002536  00000+0  39279-3 0  9990
2 65956  51.8987 277.9232 0001024 243.6428 116.4428 14.76322392 25843
KUIPER-00128            
1 65957U 25228L   26085.24828118  .00003437  00000+0  47958-3 0  9998
2 65957  51.9008 279.8992 0000781 112.9050 247.1995 14.79941617 25785
KUIPER-00129            
1 65958U 25228M   26085.49010923  .00003384  00000+0  47222-3 0  9998
2 65958  51.8993 273.8143 0001196 108.5417 251.5675 14.79975775 25897
KUIPER-00130            
1 65959U 25228N   26085.52111719 -.00001324  00000+0 -14477-3 0  9998
2 65959  51.9033 276.1879 0000866  98.2629 261.8432 14.79928167 16156
KUIPER-00134            
1 65960U 25228P   26085.53593709  .00028320  00000+0  72487-3 0  9992
2 65960  51.8730 238.7362 0005483  20.5153 339.6054 15.39175836 26386
KUIPER-00135            
1 65961U 25228Q   26085.55488758  .00003256  00000+0  45607-3 0  9997
2 65961  51.9164 276.1038 0001507 282.9946  77.0849 14.79917870 25864
KUIPER-00136            
1 65962U 25228R   26085.52381134  .00000284  00000+0  66234-4 0  9993
2 65962  51.8988 273.7062 0001000 125.8456 234.2600 14.79932920 25895
KUIPER-00137            
1 65963U 25228S   26085.52644891  .00003308  00000+0  46277-3 0  9990
2 65963  51.9015 271.1594 0000723 110.6287 249.4753 14.79931420 25931
KUIPER-00138            
1 65964U 25228T   26085.49532965  .00003291  00000+0  46048-3 0  9992
2 65964  51.8978 268.7755 0000875 103.4592 256.6468 14.79937697 25965
KUIPER-00140            
1 65965U 25228U   26084.54732566  .00001106  00000+0  17405-3 0  9995
2 65965  51.8981 275.5524 0000830 118.5848 241.5198 14.79937897 25787
KUIPER-00141            
1 65966U 25228V   26084.89023129 -.00002119  00000+0 -24903-3 0  9990
2 65966  51.9041 269.0519 0000265  83.0747 277.0246 14.79938750 25905
KUIPER-00146            
1 65967U 25228W   26085.52895467  .00003268  00000+0  45630-3 0  9998
2 65967  51.9025 268.7348 0000815  18.5913 341.5079 14.80048170 25960
KUIPER-00149            
1 65968U 25228X   26084.75793959  .00003370  00000+0  47078-3 0  9998
2 65968  51.8998 267.0511 0000758 118.1117 241.9922 14.79932370 25920
KUIPER-00154            
1 65969U 25228Y   26084.79436117 -.00010205  00000+0 -13120-2 0  9990
2 65969  51.9002 264.3914 0000255  82.1774 277.9218 14.79922727 25962
KUIPER-00157            
1 65970U 25228Z   26084.92674867  .00028161  00000+0  37130-2 0  9998
2 65970  51.9012 266.4191 0000472 119.6465 240.4544 14.79870774 25948
KUIPER-00144            
1 67133U 25301A   26085.50002314  .00027372  00000+0  10570-2 0  9992
2 67133  51.8780 344.1355 0005439 100.3094 139.5231 15.26055068  4088
KUIPER-00164            
1 67134U 25301B   26085.50002314 -.00015297  00000+0 -19150-2 0  9991
2 67134  51.9039 351.0933 0001272 109.2307 163.3838 14.81366956  5464
