[{"OBJECT_NAME":"KUIPER-00127","OBJECT_ID":"2025-228K","EPOCH":"2026-03-26T13:02:41.701344","MEAN_MOTION":14.76322392,"ECCENTRICITY":0.0001024,"INCLINATION":51.8987,"RA_OF_ASC_NODE":277.9232,"ARG_OF_PERICENTER":243.6428,"MEAN_ANOMALY":116.4428,"EPHEMERIS_TYPE":0,"CLASSIFICATION_TYPE":"U","NORAD_CAT_ID":65956,"ELEMENT_SET_NO":999,"REV_AT_EPOCH":2584,"BSTAR":0.00039279,"MEAN_MOTION_DOT":2.536e-5,"MEAN_MOTION_DDOT":0},{"OBJECT_NAME":"KUIPER-00128","OBJECT_ID":"2025-228L","EPOCH":"2026-03-26T05:57:31.493952","MEAN_MOTION":14.79941617,"ECCENTRICITY":7.81e-5,"INCLINATION":51.9008,"RA_OF_ASC_NODE":279.8992,"ARG_OF_PERICENTER":112.905,"MEAN_ANOMALY":247.1995,"EPHEMERIS_TYPE":0,"CLASSIFICATION_TYPE":"U","NORAD_CAT_ID":65957,"ELEMENT_SET_NO":999,"REV_AT_EPOCH":2578,"BSTAR":0.00047958,"MEAN_MOTION_DOT":3.437e-5,"MEAN_MOTION_DDOT":0},{"OBJECT_NAME":"KUIPER-00129","OBJECT_ID":"2025-228M","EPOCH":"2026-03-26T11:45:45.437472","MEAN_MOTION":14.79975775,"ECCENTRICITY":0.0001196,"INCLINATION":51.8993,"RA_OF_ASC_NODE":273.8143,"ARG_OF_PERICENTER":108.5417,"MEAN_ANOMALY":251.5675,"EPHEMERIS_TYPE":0,"CLASSIFICATION_TYPE":"U","NORAD_CAT_ID":65958,"ELEMENT_SET_NO":999,"REV_AT_EPOCH":2589,"BSTAR":0.00047222,"MEAN_MOTION_DOT":3.384e-5,"MEAN_MOTION_DDOT":0},{"OBJECT_NAME":"KUIPER-00130","OBJECT_ID":"2025-228N","EPOCH":"2026-03-26T12:30:24.525216","MEAN_MOTION":14.79928167,"ECCENTRICITY":8.66e-5,"INCLINATION":51.9033,"RA_OF_ASC_NODE":276.1879,"ARG_OF_PERICENTER":98.2629,"MEAN_ANOMALY":261.8432,"EPHEMERIS_TYPE":0,"CLASSIFICATION_TYPE":"U","NORAD_CAT_ID":65959,"ELEMENT_SET_NO":999,"REV_AT_EPOCH":1615,"BSTAR":-0.00014477,"MEAN_MOTION_DOT":-1.324e-5,"MEAN_MOTION_DDOT":0},{"OBJECT_NAME":"KUIPER-00134","OBJECT_ID":"2025-228P","EPOCH":"2026-03-26T12:51:44.964576","MEAN_MOTION":15.39175836,"ECCENTRICITY":0.0005483,"INCLINATION":51.873,"RA_OF_ASC_NODE":238.7362,"ARG_OF_PERICENTER":20.5153,"MEAN_ANOMALY":339.6054,"EPHEMERIS_TYPE":0,"CLASSIFICATION_TYPE":"U","NORAD_CAT_ID":65960,"ELEMENT_SET_NO":999,"REV_AT_EPOCH":2638,"BSTAR":0.00072487,"MEAN_MOTION_DOT":0.0002832,"MEAN_MOTION_DDOT":0},{"OBJECT_NAME":"KUIPER-00135","OBJECT_ID":"2025-228Q","EPOCH":"2026-03-26T13:19:02.286912","MEAN_MOTION":14.7991787,"ECCENTRICITY":0.0001507,"INCLINATION":51.9164,"RA_OF_ASC_NODE":276.1038,"ARG_OF_PERICENTER":282.9946,"MEAN_ANOMALY":77.0849,"EPHEMERIS_TYPE":0,"CLASSIFICATION_TYPE":"U","NORAD_CAT_ID":65961,"ELEMENT_SET_NO":999,"REV_AT_EPOCH":2586,"BSTAR":0.00045607,"MEAN_MOTION_DOT":3.256e-5,"MEAN_MOTION_DDOT":0},{"OBJECT_NAME":"KUIPER-00136","OBJECT_ID":"2025-228R","EPOCH":"2026-03-26T12:34:17.299776","MEAN_MOTION":14.7993292,"ECCENTRICITY":0.0001,"INCLINATION":51.8988,"RA_OF_ASC_NODE":273.7062,"ARG_OF_PERICENTER":125.8456,"MEAN_ANOMALY":234.26,"EPHEMERIS_TYPE":0,"CLASSIFICATION_TYPE":"U","NORAD_CAT_ID":65962,"ELEMENT_SET_NO":999,"REV_AT_EPOCH":2589,"BSTAR":6.6234e-5,"MEAN_MOTION_DOT":2.84e-6,"MEAN_MOTION_DDOT":0},{"OBJECT_NAME":"KUIPER-00137","OBJECT_ID":"2025-228S","EPOCH":"2026-03-26T12:38:05.185824","MEAN_MOTION":14.7993142,"ECCENTRICITY":7.23e-5,"INCLINATION":51.9015,"RA_OF_ASC_NODE":271.1594,"ARG_OF_PERICENTER":110.6287,"MEAN_ANOMALY":249.4753,"EPHEMERIS_TYPE":0,"CLASSIFICATION_TYPE":"U","NORAD_CAT_ID":65963,"ELEMENT_SET_NO":999,"REV_AT_EPOCH":2593,"BSTAR":0.00046277,"MEAN_MOTION_DOT":3.308e-5,"MEAN_MOTION_DDOT":0},{"OBJECT_NAME":"KUIPER-00138","OBJECT_ID":"2025-228T","EPOCH":"2026-03-26T11:53:16.481760","MEAN_MOTION":14.79937697,"ECCENTRICITY":8.75e-5,"INCLINATION":51.8978,"RA_OF_ASC_NODE":268.7755,"ARG_OF_PERICENTER":103.4592,"MEAN_ANOMALY":256.6468,"EPHEMERIS_TYPE":0,"CLASSIFICATION_TYPE":"U","NORAD_CAT_ID":65964,"ELEMENT_SET_NO":999,"REV_AT_EPOCH":2596,"BSTAR":0.00046048,"MEAN_MOTION_DOT":3.291e-5,"MEAN_MOTION_DDOT":0},{"OBJECT_NAME":"KUIPER-00140","OBJECT_ID":"2025-228U","EPOCH":"2026-03-25T13:08:08.937024","MEAN_MOTION":14.79937897,"ECCENTRICITY":8.308e-5,"INCLINATION":51.8981,"RA_OF_ASC_NODE":275.5524,"ARG_OF_PERICENTER":118.5848,"MEAN_ANOMALY":241.5198,"EPHEMERIS_TYPE":0,"CLASSIFICATION_TYPE":"U","NORAD_CAT_ID":65965,"ELEMENT_SET_NO":999,"REV_AT_EPOCH":2578,"BSTAR":0.00017404919,"MEAN_MOTION_DOT":1.106e-5,"MEAN_MOTION_DDOT":0},{"OBJECT_NAME":"KUIPER-00141","OBJECT_ID":"2025-228V","EPOCH":"2026-03-25T21:21:55.983456","MEAN_MOTION":14.7993875,"ECCENTRICITY":2.65e-5,"INCLINATION":51.9041,"RA_OF_ASC_NODE":269.0519,"ARG_OF_PERICENTER":83.0747,"MEAN_ANOMALY":277.0246,"EPHEMERIS_TYPE":0,"CLASSIFICATION_TYPE":"U","NORAD_CAT_ID":65966,"ELEMENT_SET_NO":999,"REV_AT_EPOCH":2590,"BSTAR":-0.00024903,"MEAN_MOTION_DOT":-2.119e-5,"MEAN_MOTION_DDOT":0},{"OBJECT_NAME":"KUIPER-00146","OBJECT_ID":"2025-228W","EPOCH":"2026-03-26T12:41:41.683488","MEAN_MOTION":14.8004817,"ECCENTRICITY":8.15e-5,"INCLINATION":51.9025,"RA_OF_ASC_NODE":268.7348,"ARG_OF_PERICENTER":18.5913,"MEAN_ANOMALY":341.5079,"EPHEMERIS_TYPE":0,"CLASSIFICATION_TYPE":"U","NORAD_CAT_ID":65967,"ELEMENT_SET_NO":999,"REV_AT_EPOCH":2596,"BSTAR":0.0004563,"MEAN_MOTION_DOT":3.268e-5,"MEAN_MOTION_DDOT":0},{"OBJECT_NAME":"KUIPER-00149","OBJECT_ID":"2025-228X","EPOCH":"2026-03-25T18:11:25.980576","MEAN_MOTION":14.7993237,"ECCENTRICITY":7.583e-5,"INCLINATION":51.8998,"RA_OF_ASC_NODE":267.0511,"ARG_OF_PERICENTER":118.1117,"MEAN_ANOMALY":241.9922,"EPHEMERIS_TYPE":0,"CLASSIFICATION_TYPE":"U","NORAD_CAT_ID":65968,"ELEMENT_SET_NO":999,"REV_AT_EPOCH":2592,"BSTAR":0.00047078389,"MEAN_MOTION_DOT":3.37e-5,"MEAN_MOTION_DDOT":0},{"OBJECT_NAME":"KUIPER-00154","OBJECT_ID":"2025-228Y","EPOCH":"2026-03-25T19:03:52.805088","MEAN_MOTION":14.79922727,"ECCENTRICITY":2.556e-5,"INCLINATION":51.9002,"RA_OF_ASC_NODE":264.3914,"ARG_OF_PERICENTER":82.1774,"MEAN_ANOMALY":277.9218,"EPHEMERIS_TYPE":0,"CLASSIFICATION_TYPE":"U","NORAD_CAT_ID":65969,"ELEMENT_SET_NO":999,"REV_AT_EPOCH":2596,"BSTAR":-0.001312002,"MEAN_MOTION_DOT":-0.00010205,"MEAN_MOTION_DDOT":0},{"OBJECT_NAME":"KUIPER-00157","OBJECT_ID":"2025-228Z","EPOCH":"2026-03-25T22:14:31.085088","MEAN_MOTION":14.79870774,"ECCENTRICITY":4.72e-5,"INCLINATION":51.9012,"RA_OF_ASC_NODE":266.4191,"ARG_OF_PERICENTER":119.6465,"MEAN_ANOMALY":240.4544,"EPHEMERIS_TYPE":0,"CLASSIFICATION_TYPE":"U","NORAD_CAT_ID":65970,"ELEMENT_SET_NO":999,"REV_AT_EPOCH":2594,"BSTAR":0.003713,"MEAN_MOTION_DOT":0.00028161,"MEAN_MOTION_DDOT":0},{"OBJECT_NAME":"KUIPER-00144","OBJECT_ID":"2025-301A","EPOCH":"2026-03-26T12:00:01.999296","MEAN_MOTION":15.26055068,"ECCENTRICITY":0.0005439,"INCLINATION":51.878,"RA_OF_ASC_NODE":344.1355,"ARG_OF_PERICENTER":100.3094,"MEAN_ANOMALY":139.5231,"EPHEMERIS_TYPE":0,"CLASSIFICATION_TYPE":"U","NORAD_CAT_ID":67133,"ELEMENT_SET_NO":999,"REV_AT_EPOCH":408,"BSTAR":0.001057,"MEAN_MOTION_DOT":0.00027372,"MEAN_MOTION_DDOT":0},{"OBJECT_NAME":"KUIPER-00164","OBJECT_ID":"2025-301B","EPOCH":"2026-03-26T12:00:01.999296","MEAN_MOTION":14.81366956,"ECCENTRICITY":0.0001272,"INCLINATION":51.9039,"RA_OF_ASC_NODE":351.0933,"ARG_OF_PERICENTER":109.2307,"MEAN_ANOMALY":163.3838,"EPHEMERIS_TYPE":0,"CLASSIFICATION_TYPE":"U","NORAD_CAT_ID":67134,"ELEMENT_SET_NO":999,"REV_AT_EPOCH":546,"BSTAR":-0.001915,"MEAN_MOTION_DOT":-0.00015297,"MEAN_MOTION_DDOT":0}]
